INTELSAT 902 (IS-902)   
1 26900U 01039A   26166.53430017 -.00000285  00000+0  00000+0 0  9998
2 26900   6.1131  71.8047 0004468   9.1703 325.0843  1.00270585 90675
INTELSAT 904 (IS-904)   
1 27380U 02007A   26166.03889626 -.00000226  00000+0  00000+0 0  9991
2 27380   6.9148  69.2101 0006460   4.6857 171.9453  1.00270923 51746
DIRECTV 5 (TEMPO 1)     
1 27426U 02023A   26166.39599329 -.00000058  00000+0  00000+0 0  9990
2 27426   4.8734  75.3324 0003243  23.0379 197.7642  1.00271501 88109
INTELSAT 905 (IS-905)   
1 27438U 02027A   26166.47961603  .00000091  00000+0  00000+0 0  9990
2 27438   6.7495  69.8206 0003729  20.3591 209.0280  1.00270757 51342
GALAXY 3C (G-3C)        
1 27445U 02030A   26166.40079964 -.00000152  00000+0  00000+0 0  9994
2 27445   3.7272  77.9998 0001538  34.0137 201.1100  1.00271070 46473
INTELSAT 906 (IS-906)   
1 27513U 02041A   26166.20302918  .00000012  00000+0  00000+0 0  9992
2 27513   5.7978  72.9468 0004623   5.0095 322.7640  1.00272553 87000
GALAXY 13 (HORIZONS-1)  
1 27954U 03044A   26166.51445340  .00000134  00000+0  00000+0 0  9991
2 27954   1.4151  83.8866 0002286 350.7854 224.3201  1.00270269 46551
INTELSAT 10-02          
1 28358U 04022A   26166.54392022 -.00000009  00000+0  00000+0 0  9990
2 28358   0.0119 316.2012 0000037 244.0689 258.3545  1.00268380 80544
DIRECTV 8               
1 28659U 05019A   26166.52060677  .00000004  00000+0  00000+0 0  9991
2 28659   0.0170 320.5776 0002764 127.8954 243.6937  1.00271507 77051
GALAXY 28 (G-28)        
1 28702U 05022A   26166.46751838 -.00000200  00000+0  00000+0 0  9992
2 28702   3.2943  78.9551 0002865   4.8916 321.1103  1.00270923 51951
GALAXY 16 (G-16)        
1 29236U 06023A   26166.52459346 -.00000124  00000+0  00000+0 0  9998
2 29236   0.0102 283.1355 0002458 172.4513 258.0639  1.00270270 72951
DIRECTV 9S              
1 29494U 06043A   26166.52416012 -.00000113  00000+0  00000+0 0  9997
2 29494   2.4167  80.9209 0004842  11.9053 258.4865  1.00270809 51365
GALAXY 17 (G-17)        
1 31307U 07016B   26166.38473480 -.00000205  00000+0  00000+0 0  9992
2 31307   2.9676  79.9207 0004410  19.1380 218.0942  1.00269116 69783
INTELSAT 11 (IS-11)     
1 32253U 07044B   26166.57053868 -.00000267  00000+0  00000+0 0  9997
2 32253   3.5615  78.6883 0002269  91.1801  72.3506  0.99051525 68436
HORIZONS-2              
1 32388U 07063B   26166.52962015 -.00000253  00000+0  00000+0 0  9990
2 32388   2.5981  80.6451 0003713   1.1884 298.8458  1.00268917 67798
DIRECTV 11              
1 32729U 08013A   26165.95419218 -.00000120  00000+0  00000+0 0  9996
2 32729   0.0094 269.4466 0000494  94.4042 143.7272  1.00270145 45572
GALAXY 18 (G-18)        
1 32951U 08024A   26166.51982677  .00000028  00000+0  00000+0 0  9998
2 32951   0.0178  15.0615 0002686  69.6700 243.2065  1.00271904 45832
INTELSAT 25 (IS-25)     
1 33153U 08034A   26166.56967201 -.00000250  00000+0  00000+0 0  9993
2 33153   2.7059  80.3909 0003219  60.2072  97.1895  0.99035535 65673
GALAXY 19 (G-19)        
1 33376U 08045A   26166.52502679 -.00000136  00000+0  00000+0 0  9995
2 33376   0.0404 264.5218 0002365 182.9249 268.3762  1.00270743 64885
FM-5                    
1 35493U 09034A   26165.81425551 -.00000194  00000+0  00000+0 0  9994
2 35493   0.0205 292.4193 0001018  18.8658 158.8044  1.00269724 46628
INTELSAT 14 (IS-14)     
1 36097U 09064A   26166.46396502 -.00000271  00000+0  00000+0 0  9999
2 36097   0.0222 292.8986 0002215 140.2018 312.6838  1.00267871 60585
INTELSAT 15 (IS-15)     
1 36106U 09067A   26166.48979759 -.00000182  00000+0  00000+0 0  9997
2 36106   0.0171 302.3670 0001872 151.5293  71.3534  1.00268544 41213
DIRECTV 12              
1 36131U 09075A   26166.45252497 -.00000101  00000+0  00000+0 0  9995
2 36131   0.0233 154.0951 0000337 245.9985 283.8318  1.00272221 46532
INTELSAT 16 (IS-16)     
1 36397U 10006A   26166.45781166 -.00000242  00000+0  00000+0 0  9991
2 36397   0.0193 305.3193 0001915 160.1112 246.9194  1.00269456 59636
XM-5                    
1 37185U 10053A   26166.01642035 -.00000018  00000+0  00000+0 0  9993
2 37185   0.0647 273.1886 0002890 289.1857 311.6507  1.00271028 57463
INTELSAT 17 (IS-17)     
1 37238U 10065B   26166.55726694  .00000001  00000+0  00000+0 0  9999
2 37238   0.0089 286.2915 0002529 167.4510  76.7066  1.00271429 53238
INTELSAT 28 (IS-28)     
1 37392U 11016A   26166.39530818 -.00000223  00000+0  00000+0 0  9997
2 37392   1.8018  82.6416 0003579   6.1020 285.5343  1.00270031 53264
INTELSAT 18 (IS-18)     
1 37834U 11056A   26166.50322516  .00000055  00000+0  00000+0 0  9991
2 37834   0.0133 300.2965 0001552 142.3543 182.2943  1.00271138 53790
INTELSAT 22 (IS-22)     
1 38098U 12011A   26166.48719758  .00000000  00000+0  00000+0 0  9991
2 38098   0.0420  54.7516 0001617  45.7856  50.7089  1.00271312  7175
INTELSAT 19 (IS-19)     
1 38356U 12030A   26166.50878299 -.00000054  00000+0  00000+0 0  9998
2 38356   0.0175 351.2084 0002814 101.6438 160.0968  1.00270877 50435
INTELSAT 20 (IS-20)     
1 38740U 12043A   26166.55778694 -.00000022  00000+0  00000+0 0  9997
2 38740   0.0049  83.1092 0001754  99.4076 350.6404  1.00272179 50738
